TRANSPORTER-15 OBJECT K 
1 66675U 25276K   26068.76208861  .00012043  00000+0  57839-3 0  9996
2 66675  97.4243 143.9558 0005700   6.9635 353.1678 15.18978420 15326
FLOCK 4H-35             
1 66738U 25276CA  26068.43505598  .00008562  00000+0  40654-3 0  9995
2 66738  97.4266 143.8032 0000476 262.5938  97.5242 15.19480603 14572
