[{"OBJECT_NAME":"TRANSPORTER-15 OBJECT K","OBJECT_ID":"2025-276K","EPOCH":"2026-03-09T18:17:24.455904","MEAN_MOTION":15.1897842,"ECCENTRICITY":0.00057003,"INCLINATION":97.4243,"RA_OF_ASC_NODE":143.9558,"ARG_OF_PERICENTER":6.9635,"MEAN_ANOMALY":353.1678,"EPHEMERIS_TYPE":0,"CLASSIFICATION_TYPE":"U","NORAD_CAT_ID":66675,"ELEMENT_SET_NO":999,"REV_AT_EPOCH":1532,"BSTAR":0.00057838565,"MEAN_MOTION_DOT":0.00012043,"MEAN_MOTION_DDOT":0},{"OBJECT_NAME":"FLOCK 4H-35","OBJECT_ID":"2025-276CA","EPOCH":"2026-03-09T10:26:28.836672","MEAN_MOTION":15.19480603,"ECCENTRICITY":4.762e-5,"INCLINATION":97.4266,"RA_OF_ASC_NODE":143.8032,"ARG_OF_PERICENTER":262.5938,"MEAN_ANOMALY":97.5242,"EPHEMERIS_TYPE":0,"CLASSIFICATION_TYPE":"U","NORAD_CAT_ID":66738,"ELEMENT_SET_NO":999,"REV_AT_EPOCH":1457,"BSTAR":0.00040654248,"MEAN_MOTION_DOT":8.562e-5,"MEAN_MOTION_DDOT":0}]
